{
  "type": "FeatureCollection",
  "features": [
    {
      "type": "Feature",
      "properties": {
        "norad_id": 34728,
        "name": "COSMOS 2251 DEB",
        "group": "cosmos-2251-debris",
        "lat": 54.817213759604776,
        "lon": -113.36935217628822,
        "alt_km": 630.5416068123914,
        "timestamp": "2025-12-27T17:24:57.802752+00:00",
        "meta_object_name": "COSMOS 2251 DEB",
        "meta_object_id": "1993-036YW",
        "meta_epoch": "2025-12-26T18:18:10.094976",
        "meta_mean_motion": 14.70962251,
        "meta_eccentricity": 0.00417457,
        "meta_inclination": 74.0156,
        "meta_ra_of_asc_node": 224.5108,
        "meta_arg_of_pericenter": 18.4003,
        "meta_mean_anomaly": 341.8666,
        "meta_ephemeris_type": 0,
        "meta_classification_type": "U",
        "meta_norad_cat_id": 34728,
        "meta_element_set_no": 999,
        "meta_rev_at_epoch": 89006,
        "meta_bstar": 0.00065234941,
        "meta_mean_motion_dot": 4.022e-05,
        "meta_mean_motion_ddot": 0,
        "tle_line1": "1 34728U 93036YW  25360.76261684  .00004022  00000+0  65235-3 0  9992",
        "tle_line2": "2 34728  74.0156 224.5108 0041745  18.4003 341.8666 14.70962251890062"
      },
      "geometry": {
        "type": "Point",
        "coordinates": [
          -113.36935217628822,
          54.817213759604776
        ]
      }
    },
    {
      "type": "Feature",
      "properties": {
        "norad_id": 34729,
        "name": "COSMOS 2251 DEB",
        "group": "cosmos-2251-debris",
        "lat": 3.19149800269439,
        "lon": -30.346740862421797,
        "alt_km": 619.3858891087239,
        "timestamp": "2025-12-27T17:24:57.802762+00:00",
        "meta_object_name": "COSMOS 2251 DEB",
        "meta_object_id": "1993-036YX",
        "meta_epoch": "2025-12-27T04:31:24.449088",
        "meta_mean_motion": 14.83226319,
        "meta_eccentricity": 0.00121376,
        "meta_inclination": 74.0183,
        "meta_ra_of_asc_node": 329.8018,
        "meta_arg_of_pericenter": 81.4706,
        "meta_mean_anomaly": 294.8875,
        "meta_ephemeris_type": 0,
        "meta_classification_type": "U",
        "meta_norad_cat_id": 34729,
        "meta_element_set_no": 999,
        "meta_rev_at_epoch": 88672,
        "meta_bstar": 0.0024708924,
        "meta_mean_motion_dot": 0.00020246,
        "meta_mean_motion_ddot": 0,
        "tle_line1": "1 34729U 93036YX  25361.18847742  .00020246  00000+0  24709-2 0  9991",
        "tle_line2": "2 34729  74.0183 329.8018 0012137  81.4706 294.8875 14.83226319886724"
      },
      "geometry": {
        "type": "Point",
        "coordinates": [
          -30.346740862421797,
          3.19149800269439
        ]
      }
    },
    {
      "type": "Feature",
      "properties": {
        "norad_id": 34732,
        "name": "COSMOS 2251 DEB",
        "group": "cosmos-2251-debris",
        "lat": 68.214736819329,
        "lon": -160.5224455411947,
        "alt_km": 736.2703526213145,
        "timestamp": "2025-12-27T17:24:57.802772+00:00",
        "meta_object_name": "COSMOS 2251 DEB",
        "meta_object_id": "1993-036ZA",
        "meta_epoch": "2025-12-27T03:47:09.341664",
        "meta_mean_motion": 14.47316907,
        "meta_eccentricity": 0.00400123,
        "meta_inclination": 74.0455,
        "meta_ra_of_asc_node": 66.2445,
        "meta_arg_of_pericenter": 214.4956,
        "meta_mean_anomaly": 173.0696,
        "meta_ephemeris_type": 0,
        "meta_classification_type": "U",
        "meta_norad_cat_id": 34732,
        "meta_element_set_no": 999,
        "meta_rev_at_epoch": 88352,
        "meta_bstar": 0.00016138435,
        "meta_mean_motion_dot": 5.69e-06,
        "meta_mean_motion_ddot": 0,
        "tle_line1": "1 34732U 93036ZA  25361.15774701  .00000569  00000+0  16138-3 0  9990",
        "tle_line2": "2 34732  74.0455  66.2445 0040012 214.4956 173.0696 14.47316907883521"
      },
      "geometry": {
        "type": "Point",
        "coordinates": [
          -160.5224455411947,
          68.214736819329
        ]
      }
    },
    {
      "type": "Feature",
      "properties": {
        "norad_id": 34736,
        "name": "COSMOS 2251 DEB",
        "group": "cosmos-2251-debris",
        "lat": -62.512154575858325,
        "lon": -143.46804103552577,
        "alt_km": 384.04946510113314,
        "timestamp": "2025-12-27T17:24:57.802783+00:00",
        "meta_object_name": "COSMOS 2251 DEB",
        "meta_object_id": "1993-036ZE",
        "meta_epoch": "2025-12-27T07:08:39.911424",
        "meta_mean_motion": 15.62788601,
        "meta_eccentricity": 0.0008307,
        "meta_inclination": 73.9965,
        "meta_ra_of_asc_node": 4.0115,
        "meta_arg_of_pericenter": 336.0819,
        "meta_mean_anomaly": 24.0014,
        "meta_ephemeris_type": 0,
        "meta_classification_type": "U",
        "meta_norad_cat_id": 34736,
        "meta_element_set_no": 999,
        "meta_rev_at_epoch": 88674,
        "meta_bstar": 0.0090031,
        "meta_mean_motion_dot": 0.0089031,
        "meta_mean_motion_ddot": 0,
        "tle_line1": "1 34736U 93036ZE  25361.29768416  .00890310  00000+0  90031-2 0  9999",
        "tle_line2": "2 34736  73.9965   4.0115 0008307 336.0819  24.0014 15.62788601886741"
      },
      "geometry": {
        "type": "Point",
        "coordinates": [
          -143.46804103552577,
          -62.512154575858325
        ]
      }
    },
    {
      "type": "Feature",
      "properties": {
        "norad_id": 34738,
        "name": "COSMOS 2251 DEB",
        "group": "cosmos-2251-debris",
        "lat": 73.06341147960568,
        "lon": -174.47881699333965,
        "alt_km": 763.9805977241422,
        "timestamp": "2025-12-27T17:24:57.802793+00:00",
        "meta_object_name": "COSMOS 2251 DEB",
        "meta_object_id": "1993-036ZG",
        "meta_epoch": "2025-12-27T02:20:32.699616",
        "meta_mean_motion": 14.46336983,
        "meta_eccentricity": 0.00475977,
        "meta_inclination": 74.0159,
        "meta_ra_of_asc_node": 116.4311,
        "meta_arg_of_pericenter": 260.0922,
        "meta_mean_anomaly": 155.4152,
        "meta_ephemeris_type": 0,
        "meta_classification_type": "U",
        "meta_norad_cat_id": 34738,
        "meta_element_set_no": 999,
        "meta_rev_at_epoch": 88066,
        "meta_bstar": 0.00040900759,
        "meta_mean_motion_dot": 1.46e-05,
        "meta_mean_motion_ddot": 0,
        "tle_line1": "1 34738U 93036ZG  25361.09760069  .00001460  00000+0  40901-3 0  9997",
        "tle_line2": "2 34738  74.0159 116.4311 0047597 260.0922 155.4152 14.46336983880661"
      },
      "geometry": {
        "type": "Point",
        "coordinates": [
          -174.47881699333965,
          73.06341147960568
        ]
      }
    },
    {
      "type": "Feature",
      "properties": {
        "norad_id": 34750,
        "name": "COSMOS 2251 DEB",
        "group": "cosmos-2251-debris",
        "lat": -24.792778974753787,
        "lon": 165.6559604969115,
        "alt_km": 716.2136981036665,
        "timestamp": "2025-12-27T17:24:57.802804+00:00",
        "meta_object_name": "COSMOS 2251 DEB",
        "meta_object_id": "1993-036ZU",
        "meta_epoch": "2025-12-26T22:22:40.831392",
        "meta_mean_motion": 14.61470505,
        "meta_eccentricity": 0.0038217,
        "meta_inclination": 74.1071,
        "meta_ra_of_asc_node": 174.7283,
        "meta_arg_of_pericenter": 122.8481,
        "meta_mean_anomaly": 359.8296,
        "meta_ephemeris_type": 0,
        "meta_classification_type": "U",
        "meta_norad_cat_id": 34750,
        "meta_element_set_no": 999,
        "meta_rev_at_epoch": 88438,
        "meta_bstar": 0.0014743,
        "meta_mean_motion_dot": 7.361e-05,
        "meta_mean_motion_ddot": 0,
        "tle_line1": "1 34750U 93036ZU  25360.93241703  .00007361  00000+0  14743-2 0  9992",
        "tle_line2": "2 34750  74.1071 174.7283 0038217 122.8481 359.8296 14.61470505884386"
      },
      "geometry": {
        "type": "Point",
        "coordinates": [
          165.6559604969115,
          -24.792778974753787
        ]
      }
    },
    {
      "type": "Feature",
      "properties": {
        "norad_id": 34752,
        "name": "COSMOS 2251 DEB",
        "group": "cosmos-2251-debris",
        "lat": 39.17528905981915,
        "lon": -16.392329674624403,
        "alt_km": 542.5422507807507,
        "timestamp": "2025-12-27T17:24:57.802814+00:00",
        "meta_object_name": "COSMOS 2251 DEB",
        "meta_object_id": "1993-036ZW",
        "meta_epoch": "2025-12-27T07:37:54.456096",
        "meta_mean_motion": 15.0027592,
        "meta_eccentricity": 0.0047567,
        "meta_inclination": 74.0132,
        "meta_ra_of_asc_node": 330.9274,
        "meta_arg_of_pericenter": 94.6976,
        "meta_mean_anomaly": 265.9646,
        "meta_ephemeris_type": 0,
        "meta_classification_type": "U",
        "meta_norad_cat_id": 34752,
        "meta_element_set_no": 999,
        "meta_rev_at_epoch": 90068,
        "meta_bstar": 0.0011458,
        "meta_mean_motion_dot": 0.00014692,
        "meta_mean_motion_ddot": 0,
        "tle_line1": "1 34752U 93036ZW  25361.31799139  .00014692  00000+0  11458-2 0  9993",
        "tle_line2": "2 34752  74.0132 330.9274 0047567  94.6976 265.9646 15.00275920900680"
      },
      "geometry": {
        "type": "Point",
        "coordinates": [
          -16.392329674624403,
          39.17528905981915
        ]
      }
    }
  ]
}